{"type":"Feature","properties":{"featurecla":"Admin-0 country","scalerank":4,"labelrank":6,"sovereignt":"United Kingdom","sov_a3":"GB1","adm0_dif":1,"level":2,"type":"Country","tlc":"1","admin":"Guernsey","adm0_a3":"GGY","geou_dif":0,"geounit":"Guernsey","gu_a3":"GGY","su_dif":0,"subunit":"Guernsey","su_a3":"GGY","brk_diff":0,"name":"Guernsey","name_long":"Guernsey","brk_a3":"GGY","brk_name":"Guernsey","brk_group":"Channel Islands","abbrev":"Guern.","postal":"GG","formal_en":"Bailiwick of Guernsey","formal_fr":null,"name_ciawf":"Guernsey","note_adm0":"U.K.","note_brk":"U.K. crown dependency","name_sort":"Guernsey","name_alt":null,"mapcolor7":6,"mapcolor8":6,"mapcolor9":6,"mapcolor13":3,"pop_est":62792,"pop_rank":8,"pop_year":2019,"gdp_md":3465,"gdp_year":2015,"economy":"2. Developed region: nonG7","income_grp":"2. High income: nonOECD","fips_10":"GK","iso_a2":"GG","iso_a2_eh":"GG","iso_a3":"GGY","iso_a3_eh":"GGY","iso_n3":"831","iso_n3_eh":"831","un_a3":"831","wb_a2":"JG","wb_a3":"CHI","woe_id":23424827,"woe_id_eh":23424827,"woe_note":"Exact WOE match as country","adm0_iso":"GGY","adm0_diff":null,"adm0_tlc":"GGY","adm0_a3_us":"GGY","adm0_a3_fr":"GGY","adm0_a3_ru":"GGY","adm0_a3_es":"GGY","adm0_a3_cn":"GGY","adm0_a3_tw":"GGY","adm0_a3_in":"GGY","adm0_a3_np":"GGY","adm0_a3_pk":"GGY","adm0_a3_de":"GGY","adm0_a3_gb":"GGY","adm0_a3_br":"GGY","adm0_a3_il":"GGY","adm0_a3_ps":"GGY","adm0_a3_sa":"GGY","adm0_a3_eg":"GGY","adm0_a3_ma":"GGY","adm0_a3_pt":"GGY","adm0_a3_ar":"GGY","adm0_a3_jp":"GGY","adm0_a3_ko":"GGY","adm0_a3_vn":"GGY","adm0_a3_tr":"GGY","adm0_a3_id":"GGY","adm0_a3_pl":"GGY","adm0_a3_gr":"GGY","adm0_a3_it":"GGY","adm0_a3_nl":"GGY","adm0_a3_se":"GGY","adm0_a3_bd":"GGY","adm0_a3_ua":"GGY","adm0_a3_un":-99,"adm0_a3_wb":-99,"continent":"Europe","region_un":"Europe","subregion":"Northern Europe","region_wb":"Europe & Central Asia","name_len":8,"long_len":8,"abbrev_len":6,"tiny":-99,"homepart":-99,"min_zoom":0,"min_label":5,"max_label":10,"label_x":-2.561736,"label_y":49.463533,"ne_id":1159320715,"wikidataid":"Q25230","name_ar":"غيرنزي","name_bn":"গার্নসি","name_de":"Guernsey","name_en":"Guernsey","name_es":"Guernsey","name_fa":"گرنزی","name_fr":"Guernesey","name_el":"Γκέρνσεϊ","name_he":"גרנזי","name_hi":"ग्वेर्नसे","name_hu":"Guernsey Bailiffség","name_id":"Guernsey","name_it":"Guernsey","name_ja":"ガーンジー","name_ko":"건지섬","name_nl":"Guernsey","name_pl":"Guernsey","name_pt":"Guernsey","name_ru":"Гернси","name_sv":"Guernsey","name_tr":"Guernsey","name_uk":"Гернсі","name_ur":"گرنزی","name_vi":"Guernsey","name_zh":"根西","name_zht":"根西","fclass_iso":"Admin-0 country","tlc_diff":null,"fclass_tlc":"Admin-0 country","fclass_us":null,"fclass_fr":null,"fclass_ru":null,"fclass_es":null,"fclass_cn":null,"fclass_tw":null,"fclass_in":null,"fclass_np":null,"fclass_pk":null,"fclass_de":null,"fclass_gb":null,"fclass_br":null,"fclass_il":null,"fclass_ps":null,"fclass_sa":null,"fclass_eg":null,"fclass_ma":null,"fclass_pt":null,"fclass_ar":null,"fclass_jp":null,"fclass_ko":null,"fclass_vn":null,"fclass_tr":null,"fclass_id":null,"fclass_pl":null,"fclass_gr":null,"fclass_it":null,"fclass_nl":null,"fclass_se":null,"fclass_bd":null,"fclass_ua":null,"filename":"GGY.geojson"},"geometry":{"type":"Polygon","coordinates":[[[-2.512304687499977,49.49453125],[-2.54736328125,49.4287109375],[-2.639013671874977,49.450927734375],[-2.646142578124994,49.468212890625],[-2.542187499999983,49.506591796875],[-2.520898437499994,49.506298828125],[-2.512304687499977,49.49453125]]]}}