{"type":"Feature","properties":{"featurecla":"Admin-0 country","scalerank":3,"labelrank":4,"sovereignt":"New Zealand","sov_a3":"NZ1","adm0_dif":1,"level":2,"type":"Dependency","tlc":"1","admin":"Niue","adm0_a3":"NIU","geou_dif":0,"geounit":"Niue","gu_a3":"NIU","su_dif":0,"subunit":"Niue","su_a3":"NIU","brk_diff":0,"name":"Niue","name_long":"Niue","brk_a3":"NIU","brk_name":"Niue","brk_group":null,"abbrev":"Niue","postal":"NU","formal_en":null,"formal_fr":null,"name_ciawf":"Niue","note_adm0":"Assoc. with N.Z.","note_brk":"Assoc. with N.Z.","name_sort":"Niue","name_alt":null,"mapcolor7":3,"mapcolor8":3,"mapcolor9":4,"mapcolor13":4,"pop_est":1620,"pop_rank":3,"pop_year":2018,"gdp_md":10,"gdp_year":2003,"economy":"6. Developing region","income_grp":"3. Upper middle income","fips_10":"NE","iso_a2":"NU","iso_a2_eh":"NU","iso_a3":"NIU","iso_a3_eh":"NIU","iso_n3":"570","iso_n3_eh":"570","un_a3":"570","wb_a2":"-99","wb_a3":"-99","woe_id":23424904,"woe_id_eh":23424904,"woe_note":"Exact WOE match as country","adm0_iso":"NIU","adm0_diff":null,"adm0_tlc":"NIU","adm0_a3_us":"NIU","adm0_a3_fr":"NIU","adm0_a3_ru":"NIU","adm0_a3_es":"NIU","adm0_a3_cn":"NIU","adm0_a3_tw":"NIU","adm0_a3_in":"NIU","adm0_a3_np":"NIU","adm0_a3_pk":"NIU","adm0_a3_de":"NIU","adm0_a3_gb":"NIU","adm0_a3_br":"NIU","adm0_a3_il":"NIU","adm0_a3_ps":"NIU","adm0_a3_sa":"NIU","adm0_a3_eg":"NIU","adm0_a3_ma":"NIU","adm0_a3_pt":"NIU","adm0_a3_ar":"NIU","adm0_a3_jp":"NIU","adm0_a3_ko":"NIU","adm0_a3_vn":"NIU","adm0_a3_tr":"NIU","adm0_a3_id":"NIU","adm0_a3_pl":"NIU","adm0_a3_gr":"NIU","adm0_a3_it":"NIU","adm0_a3_nl":"NIU","adm0_a3_se":"NIU","adm0_a3_bd":"NIU","adm0_a3_ua":"NIU","adm0_a3_un":-99,"adm0_a3_wb":-99,"continent":"Oceania","region_un":"Oceania","subregion":"Polynesia","region_wb":"East Asia & Pacific","name_len":4,"long_len":4,"abbrev_len":4,"tiny":3,"homepart":-99,"min_zoom":0,"min_label":4,"max_label":9,"label_x":-169.862565,"label_y":-19.045956,"ne_id":1159321133,"wikidataid":"Q34020","name_ar":"نييوي","name_bn":"নিউয়ে","name_de":"Niue","name_en":"Niue","name_es":"Niue","name_fa":"نیووی","name_fr":"Niue","name_el":"Νιούε","name_he":"ניואה","name_hi":"निउए","name_hu":"Niue","name_id":"Niue","name_it":"Niue","name_ja":"ニウエ","name_ko":"니우에","name_nl":"Niue","name_pl":"Niue","name_pt":"Niue","name_ru":"Ниуэ","name_sv":"Niue","name_tr":"Niue","name_uk":"Ніуе","name_ur":"نیووے","name_vi":"Niue","name_zh":"纽埃","name_zht":"紐埃","fclass_iso":"Admin-0 dependency","tlc_diff":null,"fclass_tlc":"Admin-0 dependency","fclass_us":null,"fclass_fr":null,"fclass_ru":null,"fclass_es":null,"fclass_cn":null,"fclass_tw":null,"fclass_in":null,"fclass_np":null,"fclass_pk":null,"fclass_de":null,"fclass_gb":null,"fclass_br":null,"fclass_il":null,"fclass_ps":null,"fclass_sa":null,"fclass_eg":null,"fclass_ma":null,"fclass_pt":null,"fclass_ar":null,"fclass_jp":null,"fclass_ko":null,"fclass_vn":null,"fclass_tr":null,"fclass_id":null,"fclass_pl":null,"fclass_gr":null,"fclass_it":null,"fclass_nl":null,"fclass_se":null,"fclass_bd":null,"fclass_ua":null,"filename":"NIU.geojson"},"geometry":{"type":"Polygon","coordinates":[[[-169.80341796875,-19.0830078125],[-169.90380859375,-19.13789062500001],[-169.94833984375,-19.072851562500006],[-169.908740234375,-18.990234375],[-169.861572265625,-18.96865234375001],[-169.834033203125,-18.96601562500001],[-169.793408203125,-19.042578125],[-169.80341796875,-19.0830078125]]]}}