{"type":"Feature","properties":{"featurecla":"Admin-0 country","scalerank":0,"labelrank":9,"sovereignt":"Brazilian Island","sov_a3":"BRI","adm0_dif":0,"level":2,"type":"Indeterminate","tlc":null,"admin":"Brazilian Island","adm0_a3":"BRI","geou_dif":0,"geounit":"Brazilian Island","gu_a3":"BRI","su_dif":0,"subunit":"Brazilian Island","su_a3":"BRI","brk_diff":1,"name":"Brazilian I.","name_long":"Brazilian Island","brk_a3":"B85","brk_name":"Brazilian Island","brk_group":null,"abbrev":null,"postal":null,"formal_en":null,"formal_fr":null,"name_ciawf":null,"note_adm0":null,"note_brk":"Claimed by Brazil and Uruguay","name_sort":"Brazil (Brazilian I.)","name_alt":null,"mapcolor7":1,"mapcolor8":5,"mapcolor9":2,"mapcolor13":3,"pop_est":0,"pop_rank":1,"pop_year":2019,"gdp_md":0,"gdp_year":2019,"economy":"3. Emerging region: BRIC","income_grp":"3. Upper middle income","fips_10":"-99","iso_a2":"-99","iso_a2_eh":"BR","iso_a3":"-99","iso_a3_eh":"BRA","iso_n3":"-99","iso_n3_eh":"076","un_a3":"-99","wb_a2":"-99","wb_a3":"-99","woe_id":-99,"woe_id_eh":-99,"woe_note":"No WOE equivalent.","adm0_iso":"-99","adm0_diff":null,"adm0_tlc":"-99","adm0_a3_us":"BRI","adm0_a3_fr":"BRI","adm0_a3_ru":"BRI","adm0_a3_es":"BRI","adm0_a3_cn":"BRI","adm0_a3_tw":"BRI","adm0_a3_in":"BRI","adm0_a3_np":"BRI","adm0_a3_pk":"BRI","adm0_a3_de":"BRI","adm0_a3_gb":"BRI","adm0_a3_br":"BRA","adm0_a3_il":"BRI","adm0_a3_ps":"BRI","adm0_a3_sa":"BRI","adm0_a3_eg":"BRI","adm0_a3_ma":"BRI","adm0_a3_pt":"BRI","adm0_a3_ar":"BRI","adm0_a3_jp":"BRI","adm0_a3_ko":"BRI","adm0_a3_vn":"BRI","adm0_a3_tr":"BRI","adm0_a3_id":"BRI","adm0_a3_pl":"BRI","adm0_a3_gr":"BRI","adm0_a3_it":"BRI","adm0_a3_nl":"BRI","adm0_a3_se":"BRI","adm0_a3_bd":"BRI","adm0_a3_ua":"BRI","adm0_a3_un":-99,"adm0_a3_wb":-99,"continent":"South America","region_un":"Americas","subregion":"South America","region_wb":"Latin America & Caribbean","name_len":12,"long_len":16,"abbrev_len":0,"tiny":-99,"homepart":-99,"min_zoom":7,"min_label":7.7,"max_label":9,"label_x":-57.623042,"label_y":-30.187555,"ne_id":1729632181,"wikidataid":"Q2093778","name_ar":"برازيليان آيلاند","name_bn":"ব্রাজিলিয়ান আইল্যান্ড","name_de":"Isla Brasilera","name_en":"Brazilian Island","name_es":"Isla Brasilera","name_fa":"جزیره برزیلی","name_fr":"Ilha Brasileira","name_el":"Μπραζίλιαν Άιλαντ","name_he":"אי ברזילאי","name_hi":"ब्राज़ीलियन आइलैंड","name_hu":"Brazil-sziget","name_id":"Brazilian Island","name_it":"Isola brasiliana","name_ja":"ブラジレイラ島","name_ko":"브라질리안 아일랜드","name_nl":"Brazilian Island","name_pl":"Isla Brasilera","name_pt":"Ilha Brasileira","name_ru":"остров Бразилера","name_sv":"Isla Brasileña","name_tr":"Brezilya Adası","name_uk":"Острів Бразильський","name_ur":"برازیلین آئی","name_vi":"Đảo Brazilian","name_zh":"巴西岛","name_zht":"巴西島","fclass_iso":"Unrecognized","tlc_diff":null,"fclass_tlc":"Unrecognized","fclass_us":null,"fclass_fr":null,"fclass_ru":null,"fclass_es":null,"fclass_cn":null,"fclass_tw":null,"fclass_in":null,"fclass_np":null,"fclass_pk":null,"fclass_de":null,"fclass_gb":null,"fclass_br":null,"fclass_il":null,"fclass_ps":null,"fclass_sa":null,"fclass_eg":null,"fclass_ma":null,"fclass_pt":null,"fclass_ar":null,"fclass_jp":null,"fclass_ko":null,"fclass_vn":null,"fclass_tr":null,"fclass_id":null,"fclass_pl":null,"fclass_gr":null,"fclass_it":null,"fclass_nl":null,"fclass_se":null,"fclass_bd":null,"fclass_ua":null,"filename":"braziliani.geojson"},"geometry":{"type":"Polygon","coordinates":[[[-57.64246584634791,-30.193092102762034],[-57.63397090699996,-30.183582864999906],[-57.61169836499991,-30.182962747999937],[-57.602792548565105,-30.190516953885325],[-57.64246584634791,-30.193092102762034]]]}}