{"type":"Feature","properties":{"featurecla":"Admin-0 country","scalerank":6,"labelrank":6,"sovereignt":"Scarborough Reef","sov_a3":"SCR","adm0_dif":0,"level":2,"type":"Indeterminate","tlc":"1","admin":"Scarborough Reef","adm0_a3":"SCR","geou_dif":0,"geounit":"Scarborough Reef","gu_a3":"SCR","su_dif":0,"subunit":"Scarborough Reef","su_a3":"SCR","brk_diff":1,"name":"Scarborough Reef","name_long":"Scarborough Reef","brk_a3":"B70","brk_name":"Scarborough Reef","brk_group":null,"abbrev":"S.R.","postal":"SR","formal_en":null,"formal_fr":null,"name_ciawf":null,"note_adm0":"Disputed","note_brk":null,"name_sort":null,"name_alt":null,"mapcolor7":3,"mapcolor8":7,"mapcolor9":6,"mapcolor13":-99,"pop_est":0,"pop_rank":1,"pop_year":2019,"gdp_md":0,"gdp_year":2016,"economy":"7. Least developed region","income_grp":"5. Low income","fips_10":"-99","iso_a2":"-99","iso_a2_eh":"-99","iso_a3":"-99","iso_a3_eh":"-99","iso_n3":"-99","iso_n3_eh":"-99","un_a3":"-099","wb_a2":"-99","wb_a3":"-99","woe_id":-99,"woe_id_eh":-99,"woe_note":"No WOE equivalent.","adm0_iso":"-99","adm0_diff":"1","adm0_tlc":"SCR","adm0_a3_us":"SCR","adm0_a3_fr":"SCR","adm0_a3_ru":"SCR","adm0_a3_es":"SCR","adm0_a3_cn":"SCR","adm0_a3_tw":"SCR","adm0_a3_in":"SCR","adm0_a3_np":"SCR","adm0_a3_pk":"SCR","adm0_a3_de":"SCR","adm0_a3_gb":"SCR","adm0_a3_br":"SCR","adm0_a3_il":"SCR","adm0_a3_ps":"SCR","adm0_a3_sa":"SCR","adm0_a3_eg":"SCR","adm0_a3_ma":"SCR","adm0_a3_pt":"SCR","adm0_a3_ar":"SCR","adm0_a3_jp":"SCR","adm0_a3_ko":"SCR","adm0_a3_vn":"SCR","adm0_a3_tr":"SCR","adm0_a3_id":"SCR","adm0_a3_pl":"SCR","adm0_a3_gr":"SCR","adm0_a3_it":"SCR","adm0_a3_nl":"SCR","adm0_a3_se":"SCR","adm0_a3_bd":"SCR","adm0_a3_ua":"SCR","adm0_a3_un":-99,"adm0_a3_wb":-99,"continent":"Asia","region_un":"Asia","subregion":"South-Eastern Asia","region_wb":"East Asia & Pacific","name_len":16,"long_len":16,"abbrev_len":4,"tiny":-99,"homepart":1,"min_zoom":7,"min_label":6,"max_label":10,"label_x":117.753812,"label_y":15.152039,"ne_id":1159321227,"wikidataid":"Q628716","name_ar":"سكاربورو شول","name_bn":"স্কারবোরো সোয়াল","name_de":"Scarborough-Riff","name_en":"Scarborough Shoal","name_es":"Bajo de Masinloc","name_fa":"سد ساحلی اسکاربرو","name_fr":"Récif de Scarborough","name_el":"Ύφαλος Σκάρμπορο","name_he":"סקרבורו שואל","name_hi":"स्कारबरो शोल","name_hu":"Scarborough-zátony","name_id":"Gosong Scarborough","name_it":"Scarborough Shoal","name_ja":"スカボロー礁","name_ko":"스카버러 암초","name_nl":"Scarborough-rif","name_pl":"Huangyan Dao","name_pt":"Recife de Masinloc","name_ru":"Скарборо-Шол","name_sv":"Scarboroughrevet","name_tr":"Scarborough Shoal","name_uk":"Скарборо","name_ur":"سکیربورو شوال","name_vi":"Bãi cạn Scarborough","name_zh":"黄岩岛","name_zht":"民主礁","fclass_iso":"Unrecognized","tlc_diff":"1","fclass_tlc":"Admin-0 indeterminant","fclass_us":null,"fclass_fr":null,"fclass_ru":null,"fclass_es":null,"fclass_cn":null,"fclass_tw":null,"fclass_in":null,"fclass_np":null,"fclass_pk":null,"fclass_de":null,"fclass_gb":null,"fclass_br":null,"fclass_il":null,"fclass_ps":null,"fclass_sa":null,"fclass_eg":null,"fclass_ma":null,"fclass_pt":null,"fclass_ar":null,"fclass_jp":null,"fclass_ko":null,"fclass_vn":null,"fclass_tr":null,"fclass_id":null,"fclass_pl":null,"fclass_gr":null,"fclass_it":null,"fclass_nl":null,"fclass_se":null,"fclass_bd":null,"fclass_ua":null,"filename":"scarboroughreef.geojson"},"geometry":{"type":"Polygon","coordinates":[[[117.75388717800001,15.154369263000092],[117.75569233100009,15.151887178000038],[117.75388717800001,15.150082025000074],[117.75185638100004,15.151887178000038],[117.75388717800001,15.154369263000092]]]}}