{"type":"Feature","properties":{"featurecla":"Admin-0 country","scalerank":1,"labelrank":5,"sovereignt":"Barbados","sov_a3":"BRB","adm0_dif":0,"level":2,"type":"Sovereign country","tlc":"1","admin":"Barbados","adm0_a3":"BRB","geou_dif":0,"geounit":"Barbados","gu_a3":"BRB","su_dif":0,"subunit":"Barbados","su_a3":"BRB","brk_diff":0,"name":"Barbados","name_long":"Barbados","brk_a3":"BRB","brk_name":"Barbados","brk_group":null,"abbrev":"Barb.","postal":"BB","formal_en":"Barbados","formal_fr":null,"name_ciawf":"Barbados","note_adm0":null,"note_brk":null,"name_sort":"Barbados","name_alt":null,"mapcolor7":4,"mapcolor8":1,"mapcolor9":5,"mapcolor13":3,"pop_est":287025,"pop_rank":10,"pop_year":2019,"gdp_md":5209,"gdp_year":2019,"economy":"6. Developing region","income_grp":"2. High income: nonOECD","fips_10":"BB","iso_a2":"BB","iso_a2_eh":"BB","iso_a3":"BRB","iso_a3_eh":"BRB","iso_n3":"052","iso_n3_eh":"052","un_a3":"052","wb_a2":"BB","wb_a3":"BRB","woe_id":23424754,"woe_id_eh":23424754,"woe_note":"Exact WOE match as country","adm0_iso":"BRB","adm0_diff":null,"adm0_tlc":"BRB","adm0_a3_us":"BRB","adm0_a3_fr":"BRB","adm0_a3_ru":"BRB","adm0_a3_es":"BRB","adm0_a3_cn":"BRB","adm0_a3_tw":"BRB","adm0_a3_in":"BRB","adm0_a3_np":"BRB","adm0_a3_pk":"BRB","adm0_a3_de":"BRB","adm0_a3_gb":"BRB","adm0_a3_br":"BRB","adm0_a3_il":"BRB","adm0_a3_ps":"BRB","adm0_a3_sa":"BRB","adm0_a3_eg":"BRB","adm0_a3_ma":"BRB","adm0_a3_pt":"BRB","adm0_a3_ar":"URY","adm0_a3_jp":"BRB","adm0_a3_ko":"BRB","adm0_a3_vn":"BRB","adm0_a3_tr":"BRB","adm0_a3_id":"BRB","adm0_a3_pl":"BRB","adm0_a3_gr":"BRB","adm0_a3_it":"BRB","adm0_a3_nl":"BRB","adm0_a3_se":"BRB","adm0_a3_bd":"BRB","adm0_a3_ua":"BRB","adm0_a3_un":-99,"adm0_a3_wb":-99,"continent":"North America","region_un":"Americas","subregion":"Caribbean","region_wb":"Latin America & Caribbean","name_len":8,"long_len":8,"abbrev_len":5,"tiny":3,"homepart":1,"min_zoom":0,"min_label":4.5,"max_label":9.5,"label_x":-59.568966,"label_y":13.163709,"ne_id":1159320449,"wikidataid":"Q244","name_ar":"باربادوس","name_bn":"বার্বাডোস","name_de":"Barbados","name_en":"Barbados","name_es":"Barbados","name_fa":"باربادوس","name_fr":"Barbade","name_el":"Μπαρμπάντος","name_he":"ברבדוס","name_hi":"बारबाडोस","name_hu":"Barbados","name_id":"Barbados","name_it":"Barbados","name_ja":"バルバドス","name_ko":"바베이도스","name_nl":"Barbados","name_pl":"Barbados","name_pt":"Barbados","name_ru":"Барбадос","name_sv":"Barbados","name_tr":"Barbados","name_uk":"Барбадос","name_ur":"بارباڈوس","name_vi":"Barbados","name_zh":"巴巴多斯","name_zht":"巴貝多","fclass_iso":"Admin-0 country","tlc_diff":null,"fclass_tlc":"Admin-0 country","fclass_us":null,"fclass_fr":null,"fclass_ru":null,"fclass_es":null,"fclass_cn":null,"fclass_tw":null,"fclass_in":null,"fclass_np":null,"fclass_pk":null,"fclass_de":null,"fclass_gb":null,"fclass_br":null,"fclass_il":null,"fclass_ps":null,"fclass_sa":null,"fclass_eg":null,"fclass_ma":null,"fclass_pt":null,"fclass_ar":null,"fclass_jp":null,"fclass_ko":null,"fclass_vn":null,"fclass_tr":null,"fclass_id":null,"fclass_pl":null,"fclass_gr":null,"fclass_it":null,"fclass_nl":null,"fclass_se":null,"fclass_bd":null,"fclass_ua":null,"filename":"BRB.geojson"},"geometry":{"type":"Polygon","coordinates":[[[-59.493310546874994,13.081982421874997],[-59.521875,13.062207031249997],[-59.611328125,13.102099609374989],[-59.6427734375,13.150292968749994],[-59.6466796875,13.303125],[-59.59160156249999,13.317675781250003],[-59.487890625,13.196826171874989],[-59.427636718749994,13.152783203124997],[-59.493310546874994,13.081982421874997]]]}}