{"type":"Feature","properties":{"featurecla":"Admin-0 country","scalerank":1,"labelrank":6,"sovereignt":"Dominica","sov_a3":"DMA","adm0_dif":0,"level":2,"type":"Sovereign country","tlc":"1","admin":"Dominica","adm0_a3":"DMA","geou_dif":0,"geounit":"Dominica","gu_a3":"DMA","su_dif":0,"subunit":"Dominica","su_a3":"DMA","brk_diff":0,"name":"Dominica","name_long":"Dominica","brk_a3":"DMA","brk_name":"Dominica","brk_group":null,"abbrev":"D'inca","postal":"DM","formal_en":"Commonwealth of Dominica","formal_fr":null,"name_ciawf":"Dominica","note_adm0":null,"note_brk":null,"name_sort":"Dominica","name_alt":null,"mapcolor7":4,"mapcolor8":5,"mapcolor9":2,"mapcolor13":12,"pop_est":71808,"pop_rank":8,"pop_year":2019,"gdp_md":582,"gdp_year":2019,"economy":"6. Developing region","income_grp":"3. Upper middle income","fips_10":"DO","iso_a2":"DM","iso_a2_eh":"DM","iso_a3":"DMA","iso_a3_eh":"DMA","iso_n3":"212","iso_n3_eh":"212","un_a3":"212","wb_a2":"DM","wb_a3":"DMA","woe_id":23424798,"woe_id_eh":23424798,"woe_note":"Exact WOE match as country","adm0_iso":"DMA","adm0_diff":null,"adm0_tlc":"DMA","adm0_a3_us":"DMA","adm0_a3_fr":"DMA","adm0_a3_ru":"DMA","adm0_a3_es":"DMA","adm0_a3_cn":"DMA","adm0_a3_tw":"DMA","adm0_a3_in":"DMA","adm0_a3_np":"DMA","adm0_a3_pk":"DMA","adm0_a3_de":"DMA","adm0_a3_gb":"DMA","adm0_a3_br":"DMA","adm0_a3_il":"DMA","adm0_a3_ps":"DMA","adm0_a3_sa":"DMA","adm0_a3_eg":"DMA","adm0_a3_ma":"DMA","adm0_a3_pt":"DMA","adm0_a3_ar":"DMA","adm0_a3_jp":"DMA","adm0_a3_ko":"DMA","adm0_a3_vn":"DMA","adm0_a3_tr":"DMA","adm0_a3_id":"DMA","adm0_a3_pl":"DMA","adm0_a3_gr":"DMA","adm0_a3_it":"DMA","adm0_a3_nl":"DMA","adm0_a3_se":"DMA","adm0_a3_bd":"DMA","adm0_a3_ua":"DMA","adm0_a3_un":-99,"adm0_a3_wb":-99,"continent":"North America","region_un":"Americas","subregion":"Caribbean","region_wb":"Latin America & Caribbean","name_len":8,"long_len":8,"abbrev_len":6,"tiny":4,"homepart":1,"min_zoom":0,"min_label":4,"max_label":9,"label_x":-61.344958,"label_y":15.458829,"ne_id":1159320543,"wikidataid":"Q784","name_ar":"دومينيكا","name_bn":"ডোমিনিকা","name_de":"Dominica","name_en":"Dominica","name_es":"Dominica","name_fa":"دومینیکا","name_fr":"Dominique","name_el":"Δομινίκα","name_he":"דומיניקה","name_hi":"डोमिनिका","name_hu":"Dominikai Közösség","name_id":"Dominika","name_it":"Dominica","name_ja":"ドミニカ国","name_ko":"도미니카 연방","name_nl":"Dominica","name_pl":"Dominika","name_pt":"Dominica","name_ru":"Доминика","name_sv":"Dominica","name_tr":"Dominika","name_uk":"Домініка","name_ur":"ڈومینیکا","name_vi":"Dominica","name_zh":"多米尼克","name_zht":"多米尼克","fclass_iso":"Admin-0 country","tlc_diff":null,"fclass_tlc":"Admin-0 country","fclass_us":null,"fclass_fr":null,"fclass_ru":null,"fclass_es":null,"fclass_cn":null,"fclass_tw":null,"fclass_in":null,"fclass_np":null,"fclass_pk":null,"fclass_de":null,"fclass_gb":null,"fclass_br":null,"fclass_il":null,"fclass_ps":null,"fclass_sa":null,"fclass_eg":null,"fclass_ma":null,"fclass_pt":null,"fclass_ar":null,"fclass_jp":null,"fclass_ko":null,"fclass_vn":null,"fclass_tr":null,"fclass_id":null,"fclass_pl":null,"fclass_gr":null,"fclass_it":null,"fclass_nl":null,"fclass_se":null,"fclass_bd":null,"fclass_ua":null,"filename":"DMA.geojson"},"geometry":{"type":"Polygon","coordinates":[[[-61.281689453125,15.2490234375],[-61.375390625,15.227294921875],[-61.41572265625,15.399853515624997],[-61.48115234375,15.525146484375],[-61.469921875,15.603466796874997],[-61.45810546874999,15.633105468750003],[-61.32001953125,15.585058593749991],[-61.277246093749994,15.526708984374991],[-61.25107421874999,15.373144531249991],[-61.281689453125,15.2490234375]]]}}