{"type":"Feature","properties":{"featurecla":"Admin-0 country","scalerank":1,"labelrank":6,"sovereignt":"Grenada","sov_a3":"GRD","adm0_dif":0,"level":2,"type":"Sovereign country","tlc":"1","admin":"Grenada","adm0_a3":"GRD","geou_dif":0,"geounit":"Grenada","gu_a3":"GRD","su_dif":0,"subunit":"Grenada","su_a3":"GRD","brk_diff":0,"name":"Grenada","name_long":"Grenada","brk_a3":"GRD","brk_name":"Grenada","brk_group":null,"abbrev":"Gren.","postal":"GD","formal_en":"Grenada","formal_fr":null,"name_ciawf":"Grenada","note_adm0":null,"note_brk":null,"name_sort":"Grenada","name_alt":null,"mapcolor7":2,"mapcolor8":4,"mapcolor9":3,"mapcolor13":6,"pop_est":112003,"pop_rank":9,"pop_year":2019,"gdp_md":1210,"gdp_year":2019,"economy":"6. Developing region","income_grp":"3. Upper middle income","fips_10":"GJ","iso_a2":"GD","iso_a2_eh":"GD","iso_a3":"GRD","iso_a3_eh":"GRD","iso_n3":"308","iso_n3_eh":"308","un_a3":"308","wb_a2":"GD","wb_a3":"GRD","woe_id":23424826,"woe_id_eh":23424826,"woe_note":"Exact WOE match as country","adm0_iso":"GRD","adm0_diff":null,"adm0_tlc":"GRD","adm0_a3_us":"GRD","adm0_a3_fr":"GRD","adm0_a3_ru":"GRD","adm0_a3_es":"GRD","adm0_a3_cn":"GRD","adm0_a3_tw":"GRD","adm0_a3_in":"GRD","adm0_a3_np":"GRD","adm0_a3_pk":"GRD","adm0_a3_de":"GRD","adm0_a3_gb":"GRD","adm0_a3_br":"GRD","adm0_a3_il":"GRD","adm0_a3_ps":"GRD","adm0_a3_sa":"GRD","adm0_a3_eg":"GRD","adm0_a3_ma":"GRD","adm0_a3_pt":"GRD","adm0_a3_ar":"GRD","adm0_a3_jp":"GRD","adm0_a3_ko":"GRD","adm0_a3_vn":"GRD","adm0_a3_tr":"GRD","adm0_a3_id":"GRD","adm0_a3_pl":"GRD","adm0_a3_gr":"GRD","adm0_a3_it":"GRD","adm0_a3_nl":"GRD","adm0_a3_se":"GRD","adm0_a3_bd":"GRD","adm0_a3_ua":"GRD","adm0_a3_un":-99,"adm0_a3_wb":-99,"continent":"North America","region_un":"Americas","subregion":"Caribbean","region_wb":"Latin America & Caribbean","name_len":7,"long_len":7,"abbrev_len":5,"tiny":-99,"homepart":1,"min_zoom":0,"min_label":4,"max_label":9,"label_x":-61.680461,"label_y":12.113156,"ne_id":1159320813,"wikidataid":"Q769","name_ar":"غرينادا","name_bn":"গ্রেনাডা","name_de":"Grenada","name_en":"Grenada","name_es":"Granada","name_fa":"گرنادا","name_fr":"Grenade","name_el":"Γρενάδα","name_he":"גרנדה","name_hi":"ग्रेनाडा","name_hu":"Grenada","name_id":"Grenada","name_it":"Grenada","name_ja":"グレナダ","name_ko":"그레나다","name_nl":"Grenada","name_pl":"Grenada","name_pt":"Granada","name_ru":"Гренада","name_sv":"Grenada","name_tr":"Grenada","name_uk":"Гренада","name_ur":"گریناڈا","name_vi":"Grenada","name_zh":"格林纳达","name_zht":"格瑞那達","fclass_iso":"Admin-0 country","tlc_diff":null,"fclass_tlc":"Admin-0 country","fclass_us":null,"fclass_fr":null,"fclass_ru":null,"fclass_es":null,"fclass_cn":null,"fclass_tw":null,"fclass_in":null,"fclass_np":null,"fclass_pk":null,"fclass_de":null,"fclass_gb":null,"fclass_br":null,"fclass_il":null,"fclass_ps":null,"fclass_sa":null,"fclass_eg":null,"fclass_ma":null,"fclass_pt":null,"fclass_ar":null,"fclass_jp":null,"fclass_ko":null,"fclass_vn":null,"fclass_tr":null,"fclass_id":null,"fclass_pl":null,"fclass_gr":null,"fclass_it":null,"fclass_nl":null,"fclass_se":null,"fclass_bd":null,"fclass_ua":null,"filename":"GRD.geojson"},"geometry":{"type":"Polygon","coordinates":[[[-61.71552734375,12.012646484374997],[-61.782177734375,12.008447265624994],[-61.755761718749994,12.045458984374989],[-61.749902343749994,12.108447265624989],[-61.714990234374994,12.18515625],[-61.66044921874999,12.237011718749997],[-61.60703125,12.223291015624994],[-61.6271484375,12.053955078125],[-61.71552734375,12.012646484374997]]]}}