{"type":"Feature","properties":{"featurecla":"Admin-0 country","scalerank":3,"labelrank":6,"sovereignt":"United States of America","sov_a3":"US1","adm0_dif":1,"level":2,"type":"Dependency","tlc":"1","admin":"Guam","adm0_a3":"GUM","geou_dif":0,"geounit":"Guam","gu_a3":"GUM","su_dif":0,"subunit":"Guam","su_a3":"GUM","brk_diff":0,"name":"Guam","name_long":"Guam","brk_a3":"GUM","brk_name":"Guam","brk_group":null,"abbrev":"Guam","postal":"GU","formal_en":"Territory of Guam","formal_fr":null,"name_ciawf":"Guam","note_adm0":"U.S.A.","note_brk":null,"name_sort":"Guam","name_alt":null,"mapcolor7":4,"mapcolor8":5,"mapcolor9":1,"mapcolor13":1,"pop_est":167294,"pop_rank":9,"pop_year":2019,"gdp_md":5920,"gdp_year":2018,"economy":"6. Developing region","income_grp":"2. High income: nonOECD","fips_10":"GQ","iso_a2":"GU","iso_a2_eh":"GU","iso_a3":"GUM","iso_a3_eh":"GUM","iso_n3":"316","iso_n3_eh":"316","un_a3":"316","wb_a2":"GU","wb_a3":"GUM","woe_id":23424832,"woe_id_eh":23424832,"woe_note":"Exact WOE match as country","adm0_iso":"GUM","adm0_diff":null,"adm0_tlc":"GUM","adm0_a3_us":"GUM","adm0_a3_fr":"GUM","adm0_a3_ru":"GUM","adm0_a3_es":"GUM","adm0_a3_cn":"GUM","adm0_a3_tw":"GUM","adm0_a3_in":"GUM","adm0_a3_np":"GUM","adm0_a3_pk":"GUM","adm0_a3_de":"GUM","adm0_a3_gb":"GUM","adm0_a3_br":"GUM","adm0_a3_il":"GUM","adm0_a3_ps":"GUM","adm0_a3_sa":"GUM","adm0_a3_eg":"GUM","adm0_a3_ma":"GUM","adm0_a3_pt":"GUM","adm0_a3_ar":"GUM","adm0_a3_jp":"GUM","adm0_a3_ko":"GUM","adm0_a3_vn":"GUM","adm0_a3_tr":"GUM","adm0_a3_id":"GUM","adm0_a3_pl":"GUM","adm0_a3_gr":"GUM","adm0_a3_it":"GUM","adm0_a3_nl":"GUM","adm0_a3_se":"GUM","adm0_a3_bd":"GUM","adm0_a3_ua":"GUM","adm0_a3_un":-99,"adm0_a3_wb":-99,"continent":"Oceania","region_un":"Oceania","subregion":"Micronesia","region_wb":"East Asia & Pacific","name_len":4,"long_len":4,"abbrev_len":4,"tiny":2,"homepart":-99,"min_zoom":0,"min_label":3,"max_label":10,"label_x":144.703614,"label_y":13.354173,"ne_id":1159321359,"wikidataid":"Q16635","name_ar":"غوام","name_bn":"গুয়াম","name_de":"Guam","name_en":"Guam","name_es":"Guam","name_fa":"گوآم","name_fr":"Guam","name_el":"Γκουάμ","name_he":"גואם","name_hi":"गुआम","name_hu":"Guam","name_id":"Guam","name_it":"Guam","name_ja":"グアム","name_ko":"괌","name_nl":"Guam","name_pl":"Guam","name_pt":"Guam","name_ru":"Гуам","name_sv":"Guam","name_tr":"Guam","name_uk":"Гуам","name_ur":"گوام","name_vi":"Guam","name_zh":"关岛","name_zht":"關島","fclass_iso":"Admin-0 dependency","tlc_diff":null,"fclass_tlc":"Admin-0 dependency","fclass_us":null,"fclass_fr":null,"fclass_ru":null,"fclass_es":null,"fclass_cn":null,"fclass_tw":null,"fclass_in":null,"fclass_np":null,"fclass_pk":null,"fclass_de":null,"fclass_gb":null,"fclass_br":null,"fclass_il":null,"fclass_ps":null,"fclass_sa":null,"fclass_eg":null,"fclass_ma":null,"fclass_pt":null,"fclass_ar":null,"fclass_jp":null,"fclass_ko":null,"fclass_vn":null,"fclass_tr":null,"fclass_id":null,"fclass_pl":null,"fclass_gr":null,"fclass_it":null,"fclass_nl":null,"fclass_se":null,"fclass_bd":null,"fclass_ua":null,"filename":"GUM.geojson"},"geometry":{"type":"Polygon","coordinates":[[[144.74179687500003,13.25927734375],[144.69951171875005,13.257519531249997],[144.66279296875,13.291064453125003],[144.65,13.3134765625],[144.64931640625002,13.4287109375],[144.79033203125005,13.52685546875],[144.83671875000005,13.622363281250003],[144.87539062500002,13.614648437499994],[144.90966796875,13.599023437499994],[144.94082031250002,13.5703125],[144.77988281250003,13.4111328125],[144.74179687500003,13.25927734375]]]}}