{"type":"Feature","properties":{"featurecla":"Admin-0 country","scalerank":3,"labelrank":6,"sovereignt":"United Kingdom","sov_a3":"GB1","adm0_dif":1,"level":2,"type":"Dependency","tlc":"1","admin":"Montserrat","adm0_a3":"MSR","geou_dif":0,"geounit":"Montserrat","gu_a3":"MSR","su_dif":0,"subunit":"Montserrat","su_a3":"MSR","brk_diff":0,"name":"Montserrat","name_long":"Montserrat","brk_a3":"MSR","brk_name":"Montserrat","brk_group":null,"abbrev":"Monts.","postal":"MS","formal_en":null,"formal_fr":null,"name_ciawf":"Montserrat","note_adm0":"U.K.","note_brk":null,"name_sort":"Montserrat","name_alt":null,"mapcolor7":6,"mapcolor8":6,"mapcolor9":6,"mapcolor13":3,"pop_est":4649,"pop_rank":4,"pop_year":2019,"gdp_md":44,"gdp_year":2006,"economy":"6. Developing region","income_grp":"4. Lower middle income","fips_10":"MH","iso_a2":"MS","iso_a2_eh":"MS","iso_a3":"MSR","iso_a3_eh":"MSR","iso_n3":"500","iso_n3_eh":"500","un_a3":"500","wb_a2":"-99","wb_a3":"-99","woe_id":23424888,"woe_id_eh":23424888,"woe_note":"Exact WOE match as country","adm0_iso":"MSR","adm0_diff":null,"adm0_tlc":"MSR","adm0_a3_us":"MSR","adm0_a3_fr":"MSR","adm0_a3_ru":"MSR","adm0_a3_es":"MSR","adm0_a3_cn":"MSR","adm0_a3_tw":"MSR","adm0_a3_in":"MSR","adm0_a3_np":"MSR","adm0_a3_pk":"MSR","adm0_a3_de":"MSR","adm0_a3_gb":"MSR","adm0_a3_br":"MSR","adm0_a3_il":"MSR","adm0_a3_ps":"MSR","adm0_a3_sa":"MSR","adm0_a3_eg":"MSR","adm0_a3_ma":"MSR","adm0_a3_pt":"MSR","adm0_a3_ar":"MSR","adm0_a3_jp":"MSR","adm0_a3_ko":"MSR","adm0_a3_vn":"MSR","adm0_a3_tr":"MSR","adm0_a3_id":"MSR","adm0_a3_pl":"MSR","adm0_a3_gr":"MSR","adm0_a3_it":"MSR","adm0_a3_nl":"MSR","adm0_a3_se":"MSR","adm0_a3_bd":"MSR","adm0_a3_ua":"MSR","adm0_a3_un":-99,"adm0_a3_wb":-99,"continent":"North America","region_un":"Americas","subregion":"Caribbean","region_wb":"Latin America & Caribbean","name_len":10,"long_len":10,"abbrev_len":6,"tiny":6,"homepart":-99,"min_zoom":0,"min_label":5,"max_label":10,"label_x":-62.188252,"label_y":16.73717,"ne_id":1159320727,"wikidataid":"Q13353","name_ar":"مونتسرات","name_bn":"মন্টসেরাট","name_de":"Montserrat","name_en":"Montserrat","name_es":"Montserrat","name_fa":"مونتسرات","name_fr":"Montserrat","name_el":"Μοντσερράτ","name_he":"מונטסראט","name_hi":"मॉण्टसेराट","name_hu":"Montserrat","name_id":"Montserrat","name_it":"Montserrat","name_ja":"モントセラト","name_ko":"몬트세랫","name_nl":"Montserrat","name_pl":"Montserrat","name_pt":"Montserrat","name_ru":"Монтсеррат","name_sv":"Montserrat","name_tr":"Montserrat","name_uk":"Монтсеррат","name_ur":"مانٹسریٹ","name_vi":"Montserrat","name_zh":"蒙特塞拉特","name_zht":"蒙哲臘","fclass_iso":"Admin-0 dependency","tlc_diff":null,"fclass_tlc":"Admin-0 dependency","fclass_us":null,"fclass_fr":null,"fclass_ru":null,"fclass_es":null,"fclass_cn":null,"fclass_tw":null,"fclass_in":null,"fclass_np":null,"fclass_pk":null,"fclass_de":null,"fclass_gb":null,"fclass_br":null,"fclass_il":null,"fclass_ps":null,"fclass_sa":null,"fclass_eg":null,"fclass_ma":null,"fclass_pt":null,"fclass_ar":null,"fclass_jp":null,"fclass_ko":null,"fclass_vn":null,"fclass_tr":null,"fclass_id":null,"fclass_pl":null,"fclass_gr":null,"fclass_it":null,"fclass_nl":null,"fclass_se":null,"fclass_bd":null,"fclass_ua":null,"filename":"MSR.geojson"},"geometry":{"type":"Polygon","coordinates":[[[-62.1484375,16.74033203124999],[-62.154248046875,16.681201171875003],[-62.221630859375,16.699511718750003],[-62.223046875,16.7515625],[-62.191357421875,16.804394531249997],[-62.17578125,16.8095703125],[-62.1484375,16.74033203124999]]]}}