{"type":"Feature","properties":{"featurecla":"Admin-0 country","scalerank":3,"labelrank":6,"sovereignt":"Netherlands","sov_a3":"NL1","adm0_dif":1,"level":2,"type":"Country","tlc":"1","admin":"Sint Maarten","adm0_a3":"SXM","geou_dif":0,"geounit":"Sint Maarten","gu_a3":"SXM","su_dif":0,"subunit":"Sint Maarten","su_a3":"SXM","brk_diff":0,"name":"Sint Maarten","name_long":"Sint Maarten","brk_a3":"SXM","brk_name":"Sint Maarten","brk_group":null,"abbrev":"St. M.","postal":"SX","formal_en":"Sint Maarten (Dutch part)","formal_fr":null,"name_ciawf":"Sint Maarten","note_adm0":"Neth.","note_brk":null,"name_sort":"St. Maarten (Dutch part)","name_alt":null,"mapcolor7":4,"mapcolor8":2,"mapcolor9":2,"mapcolor13":9,"pop_est":40733,"pop_rank":7,"pop_year":2019,"gdp_md":1185,"gdp_year":2018,"economy":"6. Developing region","income_grp":"2. High income: nonOECD","fips_10":"NT","iso_a2":"SX","iso_a2_eh":"SX","iso_a3":"SXM","iso_a3_eh":"SXM","iso_n3":"534","iso_n3_eh":"534","un_a3":"534","wb_a2":"SX","wb_a3":"SXM","woe_id":-90,"woe_id_eh":23425000,"woe_note":"Expired subunits of Netherlands Antilles (23424914).","adm0_iso":"SXM","adm0_diff":null,"adm0_tlc":"SXM","adm0_a3_us":"SXM","adm0_a3_fr":"SXM","adm0_a3_ru":"SXM","adm0_a3_es":"SXM","adm0_a3_cn":"SXM","adm0_a3_tw":"SXM","adm0_a3_in":"SXM","adm0_a3_np":"SXM","adm0_a3_pk":"SXM","adm0_a3_de":"SXM","adm0_a3_gb":"SXM","adm0_a3_br":"SXM","adm0_a3_il":"SXM","adm0_a3_ps":"SXM","adm0_a3_sa":"SXM","adm0_a3_eg":"SXM","adm0_a3_ma":"SXM","adm0_a3_pt":"SXM","adm0_a3_ar":"SXM","adm0_a3_jp":"SXM","adm0_a3_ko":"SXM","adm0_a3_vn":"SXM","adm0_a3_tr":"SXM","adm0_a3_id":"SXM","adm0_a3_pl":"SXM","adm0_a3_gr":"SXM","adm0_a3_it":"SXM","adm0_a3_nl":"SXM","adm0_a3_se":"SXM","adm0_a3_bd":"SXM","adm0_a3_ua":"SXM","adm0_a3_un":-99,"adm0_a3_wb":-99,"continent":"North America","region_un":"Americas","subregion":"Caribbean","region_wb":"Latin America & Caribbean","name_len":12,"long_len":12,"abbrev_len":6,"tiny":4,"homepart":-99,"min_zoom":0,"min_label":5,"max_label":10,"label_x":-63.070133,"label_y":18.04088,"ne_id":1159321103,"wikidataid":"Q26273","name_ar":"سينت مارتن","name_bn":"সিন্ট মার্টেন","name_de":"Sint Maarten","name_en":"Sint Maarten","name_es":"San Martín","name_fa":"سینت مارتن","name_fr":"Saint-Martin","name_el":"Άγιος Μαρτίνος","name_he":"סנט מארטן","name_hi":"सिंट मार्टेन","name_hu":"Sint Maarten","name_id":"Sint Maarten","name_it":"Sint Maarten","name_ja":"シント・マールテン","name_ko":"신트마르턴","name_nl":"Sint Maarten","name_pl":"Sint Maarten","name_pt":"São Martinho","name_ru":"Синт-Мартен","name_sv":"Sint Maarten","name_tr":"Sint Maarten","name_uk":"Сінт-Мартен","name_ur":"سنٹ مارٹن","name_vi":"Sint Maarten","name_zh":"荷属圣马丁","name_zht":"荷屬聖馬丁","fclass_iso":"Admin-0 dependency","tlc_diff":null,"fclass_tlc":"Admin-0 dependency","fclass_us":null,"fclass_fr":null,"fclass_ru":null,"fclass_es":null,"fclass_cn":null,"fclass_tw":null,"fclass_in":null,"fclass_np":null,"fclass_pk":null,"fclass_de":null,"fclass_gb":null,"fclass_br":null,"fclass_il":null,"fclass_ps":null,"fclass_sa":null,"fclass_eg":null,"fclass_ma":null,"fclass_pt":null,"fclass_ar":null,"fclass_jp":null,"fclass_ko":null,"fclass_vn":null,"fclass_tr":null,"fclass_id":null,"fclass_pl":null,"fclass_gr":null,"fclass_it":null,"fclass_nl":null,"fclass_se":null,"fclass_bd":null,"fclass_ua":null,"filename":"SXM.geojson"},"geometry":{"type":"Polygon","coordinates":[[[-63.123046875,18.06894531249999],[-63.011181640625,18.06894531249999],[-63.01230468749999,18.04541015625],[-63.023046875,18.019189453124994],[-63.09042968749999,18.04140625],[-63.12470703125,18.06430664062499],[-63.123046875,18.06894531249999]]]}}