{"type":"Feature","properties":{"featurecla":"Admin-0 country","scalerank":5,"labelrank":6,"sovereignt":"Tuvalu","sov_a3":"TUV","adm0_dif":0,"level":2,"type":"Sovereign country","tlc":"1","admin":"Tuvalu","adm0_a3":"TUV","geou_dif":0,"geounit":"Tuvalu","gu_a3":"TUV","su_dif":0,"subunit":"Tuvalu","su_a3":"TUV","brk_diff":0,"name":"Tuvalu","name_long":"Tuvalu","brk_a3":"TUV","brk_name":"Tuvalu","brk_group":null,"abbrev":"Tuv.","postal":"TV","formal_en":"Tuvalu","formal_fr":null,"name_ciawf":"Tuvalu","note_adm0":null,"note_brk":null,"name_sort":"Tuvalu","name_alt":null,"mapcolor7":1,"mapcolor8":3,"mapcolor9":8,"mapcolor13":5,"pop_est":11646,"pop_rank":6,"pop_year":2019,"gdp_md":47,"gdp_year":2019,"economy":"7. Least developed region","income_grp":"3. Upper middle income","fips_10":"TV","iso_a2":"TV","iso_a2_eh":"TV","iso_a3":"TUV","iso_a3_eh":"TUV","iso_n3":"798","iso_n3_eh":"798","un_a3":"798","wb_a2":"TV","wb_a3":"TUV","woe_id":23424970,"woe_id_eh":23424970,"woe_note":"Exact WOE match as country","adm0_iso":"TUV","adm0_diff":null,"adm0_tlc":"TUV","adm0_a3_us":"TUV","adm0_a3_fr":"TUV","adm0_a3_ru":"TUV","adm0_a3_es":"TUV","adm0_a3_cn":"TUV","adm0_a3_tw":"TUV","adm0_a3_in":"TUV","adm0_a3_np":"TUV","adm0_a3_pk":"TUV","adm0_a3_de":"TUV","adm0_a3_gb":"TUV","adm0_a3_br":"TUV","adm0_a3_il":"TUV","adm0_a3_ps":"TUV","adm0_a3_sa":"TUV","adm0_a3_eg":"TUV","adm0_a3_ma":"TUV","adm0_a3_pt":"TUV","adm0_a3_ar":"TUV","adm0_a3_jp":"TUV","adm0_a3_ko":"TUV","adm0_a3_vn":"TUV","adm0_a3_tr":"TUV","adm0_a3_id":"TUV","adm0_a3_pl":"TUV","adm0_a3_gr":"TUV","adm0_a3_it":"TUV","adm0_a3_nl":"TUV","adm0_a3_se":"TUV","adm0_a3_bd":"TUV","adm0_a3_ua":"TUV","adm0_a3_un":-99,"adm0_a3_wb":-99,"continent":"Oceania","region_un":"Oceania","subregion":"Polynesia","region_wb":"East Asia & Pacific","name_len":6,"long_len":6,"abbrev_len":4,"tiny":5,"homepart":1,"min_zoom":0,"min_label":5,"max_label":10,"label_x":179.209587,"label_y":-8.513717,"ne_id":1159321333,"wikidataid":"Q672","name_ar":"توفالو","name_bn":"টুভালু","name_de":"Tuvalu","name_en":"Tuvalu","name_es":"Tuvalu","name_fa":"تووالو","name_fr":"Tuvalu","name_el":"Τουβαλού","name_he":"טובאלו","name_hi":"तुवालू","name_hu":"Tuvalu","name_id":"Tuvalu","name_it":"Tuvalu","name_ja":"ツバル","name_ko":"투발루","name_nl":"Tuvalu","name_pl":"Tuvalu","name_pt":"Tuvalu","name_ru":"Тувалу","name_sv":"Tuvalu","name_tr":"Tuvalu","name_uk":"Тувалу","name_ur":"تووالو","name_vi":"Tuvalu","name_zh":"图瓦卢","name_zht":"吐瓦魯","fclass_iso":"Admin-0 country","tlc_diff":null,"fclass_tlc":"Admin-0 country","fclass_us":null,"fclass_fr":null,"fclass_ru":null,"fclass_es":null,"fclass_cn":null,"fclass_tw":null,"fclass_in":null,"fclass_np":null,"fclass_pk":null,"fclass_de":null,"fclass_gb":null,"fclass_br":null,"fclass_il":null,"fclass_ps":null,"fclass_sa":null,"fclass_eg":null,"fclass_ma":null,"fclass_pt":null,"fclass_ar":null,"fclass_jp":null,"fclass_ko":null,"fclass_vn":null,"fclass_tr":null,"fclass_id":null,"fclass_pl":null,"fclass_gr":null,"fclass_it":null,"fclass_nl":null,"fclass_se":null,"fclass_bd":null,"fclass_ua":null,"filename":"TUV.geojson"},"geometry":{"type":"Polygon","coordinates":[[[179.21367187500005,-8.52421875],[179.20058593750002,-8.534960937500003],[179.19570312500002,-8.534765625],[179.20087890625,-8.512109375],[179.19794921875,-8.488671875],[179.19853515625005,-8.470019531250003],[179.20302734375002,-8.46630859375],[179.21162109375,-8.488085937500003],[179.21660156250005,-8.514843750000011],[179.21367187500005,-8.52421875]]]}}