{"type":"Feature","properties":{"featurecla":"Admin-0 country","scalerank":6,"labelrank":6,"sovereignt":"Vatican","sov_a3":"VAT","adm0_dif":0,"level":2,"type":"Sovereign country","tlc":"1","admin":"Vatican","adm0_a3":"VAT","geou_dif":0,"geounit":"Vatican","gu_a3":"VAT","su_dif":0,"subunit":"Vatican","su_a3":"VAT","brk_diff":0,"name":"Vatican","name_long":"Vatican","brk_a3":"VAT","brk_name":"Vatican","brk_group":null,"abbrev":"Vat.","postal":"V","formal_en":"State of the Vatican City","formal_fr":null,"name_ciawf":"Holy See (Vatican City)","note_adm0":null,"note_brk":null,"name_sort":"Vatican (Holy See)","name_alt":"Holy See","mapcolor7":1,"mapcolor8":3,"mapcolor9":4,"mapcolor13":2,"pop_est":825,"pop_rank":2,"pop_year":2019,"gdp_md":-99,"gdp_year":2019,"economy":"2. Developed region: nonG7","income_grp":"2. High income: nonOECD","fips_10":"VT","iso_a2":"VA","iso_a2_eh":"VA","iso_a3":"VAT","iso_a3_eh":"VAT","iso_n3":"336","iso_n3_eh":"336","un_a3":"336","wb_a2":"-99","wb_a3":"-99","woe_id":23424986,"woe_id_eh":23424986,"woe_note":"Exact WOE match as country","adm0_iso":"VAT","adm0_diff":null,"adm0_tlc":"VAT","adm0_a3_us":"VAT","adm0_a3_fr":"VAT","adm0_a3_ru":"VAT","adm0_a3_es":"VAT","adm0_a3_cn":"VAT","adm0_a3_tw":"VAT","adm0_a3_in":"VAT","adm0_a3_np":"VAT","adm0_a3_pk":"VAT","adm0_a3_de":"VAT","adm0_a3_gb":"VAT","adm0_a3_br":"VAT","adm0_a3_il":"VAT","adm0_a3_ps":"VAT","adm0_a3_sa":"VAT","adm0_a3_eg":"VAT","adm0_a3_ma":"VAT","adm0_a3_pt":"VAT","adm0_a3_ar":"VAT","adm0_a3_jp":"VAT","adm0_a3_ko":"VAT","adm0_a3_vn":"VAT","adm0_a3_tr":"VAT","adm0_a3_id":"VAT","adm0_a3_pl":"VAT","adm0_a3_gr":"VAT","adm0_a3_it":"VAT","adm0_a3_nl":"VAT","adm0_a3_se":"VAT","adm0_a3_bd":"VAT","adm0_a3_ua":"VAT","adm0_a3_un":-99,"adm0_a3_wb":-99,"continent":"Europe","region_un":"Europe","subregion":"Southern Europe","region_wb":"Europe & Central Asia","name_len":7,"long_len":7,"abbrev_len":4,"tiny":4,"homepart":1,"min_zoom":0,"min_label":5,"max_label":10,"label_x":12.453418,"label_y":41.903323,"ne_id":1159321407,"wikidataid":"Q237","name_ar":"الفاتيكان","name_bn":"ভ্যাটিকান সিটি","name_de":"Vatikanstadt","name_en":"Vatican City","name_es":"Ciudad del Vaticano","name_fa":"واتیکان","name_fr":"Cité du Vatican","name_el":"Βατικανό","name_he":"קריית הוותיקן","name_hi":"वैटिकन नगर","name_hu":"Vatikán","name_id":"Vatikan","name_it":"Città del Vaticano","name_ja":"バチカン","name_ko":"바티칸 시국","name_nl":"Vaticaanstad","name_pl":"Watykan","name_pt":"Vaticano","name_ru":"Ватикан","name_sv":"Vatikanstaten","name_tr":"Vatikan","name_uk":"Ватикан","name_ur":"ویٹیکن سٹی","name_vi":"Thành Vatican","name_zh":"梵蒂冈","name_zht":"梵蒂岡","fclass_iso":"Admin-0 country","tlc_diff":null,"fclass_tlc":"Admin-0 country","fclass_us":null,"fclass_fr":null,"fclass_ru":null,"fclass_es":null,"fclass_cn":null,"fclass_tw":null,"fclass_in":null,"fclass_np":null,"fclass_pk":null,"fclass_de":null,"fclass_gb":null,"fclass_br":null,"fclass_il":null,"fclass_ps":null,"fclass_sa":null,"fclass_eg":null,"fclass_ma":null,"fclass_pt":null,"fclass_ar":null,"fclass_jp":null,"fclass_ko":null,"fclass_vn":null,"fclass_tr":null,"fclass_id":null,"fclass_pl":null,"fclass_gr":null,"fclass_it":null,"fclass_nl":null,"fclass_se":null,"fclass_bd":null,"fclass_ua":null,"filename":"VAT.geojson"},"geometry":{"type":"Polygon","coordinates":[[[12.439160156250011,41.898388671875],[12.430566406250023,41.89755859375],[12.427539062500017,41.900732421875],[12.430566406250023,41.90546875],[12.438378906250023,41.906201171875],[12.439160156250011,41.898388671875]]]}}