{"type":"Feature","properties":{"featurecla":"Admin-0 country","scalerank":1,"labelrank":6,"sovereignt":"Luxembourg","sov_a3":"LUX","adm0_dif":0,"level":2,"type":"Sovereign country","tlc":"1","admin":"Luxembourg","adm0_a3":"LUX","geou_dif":0,"geounit":"Luxembourg","gu_a3":"LUX","su_dif":0,"subunit":"Luxembourg","su_a3":"LUX","brk_diff":0,"name":"Luxembourg","name_long":"Luxembourg","brk_a3":"LUX","brk_name":"Luxembourg","brk_group":null,"abbrev":"Lux.","postal":"L","formal_en":"Grand Duchy of Luxembourg","formal_fr":null,"name_ciawf":"Luxembourg","note_adm0":null,"note_brk":null,"name_sort":"Luxembourg","name_alt":null,"mapcolor7":1,"mapcolor8":7,"mapcolor9":3,"mapcolor13":7,"pop_est":619896,"pop_rank":11,"pop_year":2019,"gdp_md":71104,"gdp_year":2019,"economy":"2. Developed region: nonG7","income_grp":"1. High income: OECD","fips_10":"LU","iso_a2":"LU","iso_a2_eh":"LU","iso_a3":"LUX","iso_a3_eh":"LUX","iso_n3":"442","iso_n3_eh":"442","un_a3":"442","wb_a2":"LU","wb_a3":"LUX","woe_id":23424881,"woe_id_eh":23424881,"woe_note":"Exact WOE match as country","adm0_iso":"LUX","adm0_diff":null,"adm0_tlc":"LUX","adm0_a3_us":"LUX","adm0_a3_fr":"LUX","adm0_a3_ru":"LUX","adm0_a3_es":"LUX","adm0_a3_cn":"LUX","adm0_a3_tw":"LUX","adm0_a3_in":"LUX","adm0_a3_np":"LUX","adm0_a3_pk":"LUX","adm0_a3_de":"LUX","adm0_a3_gb":"LUX","adm0_a3_br":"LUX","adm0_a3_il":"LUX","adm0_a3_ps":"LUX","adm0_a3_sa":"LUX","adm0_a3_eg":"LUX","adm0_a3_ma":"LUX","adm0_a3_pt":"LUX","adm0_a3_ar":"LUX","adm0_a3_jp":"LUX","adm0_a3_ko":"LUX","adm0_a3_vn":"LUX","adm0_a3_tr":"LUX","adm0_a3_id":"LUX","adm0_a3_pl":"LUX","adm0_a3_gr":"LUX","adm0_a3_it":"LUX","adm0_a3_nl":"LUX","adm0_a3_se":"LUX","adm0_a3_bd":"LUX","adm0_a3_ua":"LUX","adm0_a3_un":-99,"adm0_a3_wb":-99,"continent":"Europe","region_un":"Europe","subregion":"Western Europe","region_wb":"Europe & Central Asia","name_len":10,"long_len":10,"abbrev_len":4,"tiny":5,"homepart":1,"min_zoom":0,"min_label":5.7,"max_label":10,"label_x":6.07762,"label_y":49.733732,"ne_id":1159321031,"wikidataid":"Q32","name_ar":"لوكسمبورغ","name_bn":"লুক্সেমবুর্গ","name_de":"Luxemburg","name_en":"Luxembourg","name_es":"Luxemburgo","name_fa":"لوکزامبورگ","name_fr":"Luxembourg","name_el":"Λουξεμβούργο","name_he":"לוקסמבורג","name_hi":"लक्ज़मबर्ग","name_hu":"Luxemburg","name_id":"Luksemburg","name_it":"Lussemburgo","name_ja":"ルクセンブルク","name_ko":"룩셈부르크","name_nl":"Luxemburg","name_pl":"Luksemburg","name_pt":"Luxemburgo","name_ru":"Люксембург","name_sv":"Luxemburg","name_tr":"Lüksemburg","name_uk":"Люксембург","name_ur":"لکسمبرگ","name_vi":"Luxembourg","name_zh":"卢森堡","name_zht":"盧森堡","fclass_iso":"Admin-0 country","tlc_diff":null,"fclass_tlc":"Admin-0 country","fclass_us":null,"fclass_fr":null,"fclass_ru":null,"fclass_es":null,"fclass_cn":null,"fclass_tw":null,"fclass_in":null,"fclass_np":null,"fclass_pk":null,"fclass_de":null,"fclass_gb":null,"fclass_br":null,"fclass_il":null,"fclass_ps":null,"fclass_sa":null,"fclass_eg":null,"fclass_ma":null,"fclass_pt":null,"fclass_ar":null,"fclass_jp":null,"fclass_ko":null,"fclass_vn":null,"fclass_tr":null,"fclass_id":null,"fclass_pl":null,"fclass_gr":null,"fclass_it":null,"fclass_nl":null,"fclass_se":null,"fclass_bd":null,"fclass_ua":null,"filename":"LUX.geojson"},"geometry":{"type":"Polygon","coordinates":[[[6.043073357781111,50.128051662794235],[6.242751092156993,49.90222565367873],[6.186320428094177,49.463802802114515],[5.897759230176348,49.44266714130711],[5.674051954784829,49.529483547557504],[5.782417433300907,50.09032786722122],[6.043073357781111,50.128051662794235]]]}}