{"type":"Feature","properties":{"featurecla":"Admin-0 country","scalerank":1,"labelrank":6,"sovereignt":"Burundi","sov_a3":"BDI","adm0_dif":0,"level":2,"type":"Sovereign country","tlc":"1","admin":"Burundi","adm0_a3":"BDI","geou_dif":0,"geounit":"Burundi","gu_a3":"BDI","su_dif":0,"subunit":"Burundi","su_a3":"BDI","brk_diff":0,"name":"Burundi","name_long":"Burundi","brk_a3":"BDI","brk_name":"Burundi","brk_group":null,"abbrev":"Bur.","postal":"BI","formal_en":"Republic of Burundi","formal_fr":null,"name_ciawf":"Burundi","note_adm0":null,"note_brk":null,"name_sort":"Burundi","name_alt":null,"mapcolor7":2,"mapcolor8":2,"mapcolor9":5,"mapcolor13":8,"pop_est":11530580,"pop_rank":14,"pop_year":2019,"gdp_md":3012,"gdp_year":2019,"economy":"7. Least developed region","income_grp":"5. Low income","fips_10":"BY","iso_a2":"BI","iso_a2_eh":"BI","iso_a3":"BDI","iso_a3_eh":"BDI","iso_n3":"108","iso_n3_eh":"108","un_a3":"108","wb_a2":"BI","wb_a3":"BDI","woe_id":23424774,"woe_id_eh":23424774,"woe_note":"Exact WOE match as country","adm0_iso":"BDI","adm0_diff":null,"adm0_tlc":"BDI","adm0_a3_us":"BDI","adm0_a3_fr":"BDI","adm0_a3_ru":"BDI","adm0_a3_es":"BDI","adm0_a3_cn":"BDI","adm0_a3_tw":"BDI","adm0_a3_in":"BDI","adm0_a3_np":"BDI","adm0_a3_pk":"BDI","adm0_a3_de":"BDI","adm0_a3_gb":"BDI","adm0_a3_br":"BDI","adm0_a3_il":"BDI","adm0_a3_ps":"BDI","adm0_a3_sa":"BDI","adm0_a3_eg":"BDI","adm0_a3_ma":"BDI","adm0_a3_pt":"BDI","adm0_a3_ar":"BDI","adm0_a3_jp":"BDI","adm0_a3_ko":"BDI","adm0_a3_vn":"BDI","adm0_a3_tr":"BDI","adm0_a3_id":"BDI","adm0_a3_pl":"BDI","adm0_a3_gr":"BDI","adm0_a3_it":"BDI","adm0_a3_nl":"BDI","adm0_a3_se":"BDI","adm0_a3_bd":"BDI","adm0_a3_ua":"BDI","adm0_a3_un":-99,"adm0_a3_wb":-99,"continent":"Africa","region_un":"Africa","subregion":"Eastern Africa","region_wb":"Sub-Saharan Africa","name_len":7,"long_len":7,"abbrev_len":4,"tiny":-99,"homepart":1,"min_zoom":0,"min_label":4,"max_label":9,"label_x":29.917086,"label_y":-3.332836,"ne_id":1159320387,"wikidataid":"Q967","name_ar":"بوروندي","name_bn":"বুরুন্ডি","name_de":"Burundi","name_en":"Burundi","name_es":"Burundi","name_fa":"بوروندی","name_fr":"Burundi","name_el":"Μπουρούντι","name_he":"בורונדי","name_hi":"बुरुण्डी","name_hu":"Burundi","name_id":"Burundi","name_it":"Burundi","name_ja":"ブルンジ","name_ko":"부룬디","name_nl":"Burundi","name_pl":"Burundi","name_pt":"Burundi","name_ru":"Бурунди","name_sv":"Burundi","name_tr":"Burundi","name_uk":"Бурунді","name_ur":"برونڈی","name_vi":"Burundi","name_zh":"布隆迪","name_zht":"蒲隆地","fclass_iso":"Admin-0 country","tlc_diff":null,"fclass_tlc":"Admin-0 country","fclass_us":null,"fclass_fr":null,"fclass_ru":null,"fclass_es":null,"fclass_cn":null,"fclass_tw":null,"fclass_in":null,"fclass_np":null,"fclass_pk":null,"fclass_de":null,"fclass_gb":null,"fclass_br":null,"fclass_il":null,"fclass_ps":null,"fclass_sa":null,"fclass_eg":null,"fclass_ma":null,"fclass_pt":null,"fclass_ar":null,"fclass_jp":null,"fclass_ko":null,"fclass_vn":null,"fclass_tr":null,"fclass_id":null,"fclass_pl":null,"fclass_gr":null,"fclass_it":null,"fclass_nl":null,"fclass_se":null,"fclass_bd":null,"fclass_ua":null,"filename":"BDI.geojson"},"geometry":{"type":"Polygon","coordinates":[[[30.469673645761223,-2.41385475710134],[30.52766,-2.80762],[30.74301,-3.03431],[30.75224,-3.35931],[30.50554,-3.56858],[30.11632,-4.09012],[29.753512404099865,-4.452389418153302],[29.339997592900346,-4.499983412294092],[29.276383904749053,-3.293907159034063],[29.024926385216787,-2.839257907730158],[29.632176141078588,-2.917857761246097],[29.93835900240794,-2.348486830254238],[30.469673645761223,-2.41385475710134]]]}}