{"type":"Feature","properties":{"featurecla":"Admin-0 country","scalerank":1,"labelrank":4,"sovereignt":"The Bahamas","sov_a3":"BHS","adm0_dif":0,"level":2,"type":"Sovereign country","tlc":"1","admin":"The Bahamas","adm0_a3":"BHS","geou_dif":0,"geounit":"The Bahamas","gu_a3":"BHS","su_dif":0,"subunit":"The Bahamas","su_a3":"BHS","brk_diff":0,"name":"Bahamas","name_long":"Bahamas","brk_a3":"BHS","brk_name":"Bahamas","brk_group":null,"abbrev":"Bhs.","postal":"BS","formal_en":"Commonwealth of the Bahamas","formal_fr":null,"name_ciawf":"Bahamas, The","note_adm0":null,"note_brk":null,"name_sort":"Bahamas, The","name_alt":null,"mapcolor7":1,"mapcolor8":1,"mapcolor9":2,"mapcolor13":5,"pop_est":389482,"pop_rank":10,"pop_year":2019,"gdp_md":13578,"gdp_year":2019,"economy":"6. Developing region","income_grp":"2. High income: nonOECD","fips_10":"BF","iso_a2":"BS","iso_a2_eh":"BS","iso_a3":"BHS","iso_a3_eh":"BHS","iso_n3":"044","iso_n3_eh":"044","un_a3":"044","wb_a2":"BS","wb_a3":"BHS","woe_id":23424758,"woe_id_eh":23424758,"woe_note":"Exact WOE match as country","adm0_iso":"BHS","adm0_diff":null,"adm0_tlc":"BHS","adm0_a3_us":"BHS","adm0_a3_fr":"BHS","adm0_a3_ru":"BHS","adm0_a3_es":"BHS","adm0_a3_cn":"BHS","adm0_a3_tw":"BHS","adm0_a3_in":"BHS","adm0_a3_np":"BHS","adm0_a3_pk":"BHS","adm0_a3_de":"BHS","adm0_a3_gb":"BHS","adm0_a3_br":"BHS","adm0_a3_il":"BHS","adm0_a3_ps":"BHS","adm0_a3_sa":"BHS","adm0_a3_eg":"BHS","adm0_a3_ma":"BHS","adm0_a3_pt":"BHS","adm0_a3_ar":"BHS","adm0_a3_jp":"BHS","adm0_a3_ko":"BHS","adm0_a3_vn":"BHS","adm0_a3_tr":"BHS","adm0_a3_id":"BHS","adm0_a3_pl":"BHS","adm0_a3_gr":"BHS","adm0_a3_it":"BHS","adm0_a3_nl":"BHS","adm0_a3_se":"BHS","adm0_a3_bd":"BHS","adm0_a3_ua":"BHS","adm0_a3_un":-99,"adm0_a3_wb":-99,"continent":"North America","region_un":"Americas","subregion":"Caribbean","region_wb":"Latin America & Caribbean","name_len":7,"long_len":7,"abbrev_len":4,"tiny":-99,"homepart":1,"min_zoom":0,"min_label":4,"max_label":9,"label_x":-77.146688,"label_y":26.401789,"ne_id":1159320415,"wikidataid":"Q778","name_ar":"باهاماس","name_bn":"বাহামা দ্বীপপুঞ্জ","name_de":"Bahamas","name_en":"The Bahamas","name_es":"Bahamas","name_fa":"باهاما","name_fr":"Bahamas","name_el":"Μπαχάμες","name_he":"איי בהאמה","name_hi":"बहामास","name_hu":"Bahama-szigetek","name_id":"Bahama","name_it":"Bahamas","name_ja":"バハマ","name_ko":"바하마","name_nl":"Bahama's","name_pl":"Bahamy","name_pt":"Bahamas","name_ru":"Багамские Острова","name_sv":"Bahamas","name_tr":"Bahamalar","name_uk":"Багамські Острови","name_ur":"بہاماس","name_vi":"Bahamas","name_zh":"巴哈马","name_zht":"巴哈馬","fclass_iso":"Admin-0 country","tlc_diff":null,"fclass_tlc":"Admin-0 country","fclass_us":null,"fclass_fr":null,"fclass_ru":null,"fclass_es":null,"fclass_cn":null,"fclass_tw":null,"fclass_in":null,"fclass_np":null,"fclass_pk":null,"fclass_de":null,"fclass_gb":null,"fclass_br":null,"fclass_il":null,"fclass_ps":null,"fclass_sa":null,"fclass_eg":null,"fclass_ma":null,"fclass_pt":null,"fclass_ar":null,"fclass_jp":null,"fclass_ko":null,"fclass_vn":null,"fclass_tr":null,"fclass_id":null,"fclass_pl":null,"fclass_gr":null,"fclass_it":null,"fclass_nl":null,"fclass_se":null,"fclass_bd":null,"fclass_ua":null,"filename":"BHS.geojson"},"geometry":{"type":"MultiPolygon","coordinates":[[[[-78.98,26.79],[-78.51,26.87],[-77.85,26.84],[-77.82,26.58],[-78.91,26.42],[-78.98,26.79]]],[[[-77.79,27.04],[-77,26.59],[-77.17255,25.87918],[-77.35641,26.00735],[-77.34,26.53],[-77.78802,26.92516],[-77.79,27.04]]],[[[-78.19087,25.2103],[-77.89,25.17],[-77.54,24.34],[-77.53466,23.75975],[-77.78,23.71],[-78.03405,24.28615],[-78.40848,24.57564],[-78.19087,25.2103]]]]}}