{"type":"Feature","properties":{"featurecla":"Admin-0 country","scalerank":0,"labelrank":5,"sovereignt":"United Kingdom","sov_a3":"GB1","adm0_dif":1,"level":2,"type":"Disputed","tlc":"1","admin":"Gibraltar","adm0_a3":"GIB","geou_dif":0,"geounit":"Gibraltar","gu_a3":"GIB","su_dif":0,"subunit":"Gibraltar","su_a3":"GIB","brk_diff":1,"name":"Gibraltar","name_long":"Gibraltar","brk_a3":"B55","brk_name":"Gibraltar","brk_group":null,"abbrev":"Gib.","postal":"GI","formal_en":null,"formal_fr":null,"name_ciawf":"Gibraltar","note_adm0":"U.K.","note_brk":"Admin. By U.K.; Claimed by Spain","name_sort":"Gibraltar","name_alt":null,"mapcolor7":6,"mapcolor8":6,"mapcolor9":6,"mapcolor13":3,"pop_est":33701,"pop_rank":7,"pop_year":2019,"gdp_md":2044,"gdp_year":2014,"economy":"2. Developed region: nonG7","income_grp":"1. High income: OECD","fips_10":"GI","iso_a2":"GI","iso_a2_eh":"GI","iso_a3":"GIB","iso_a3_eh":"GIB","iso_n3":"292","iso_n3_eh":"292","un_a3":"292","wb_a2":"-99","wb_a3":"-99","woe_id":23424825,"woe_id_eh":23424825,"woe_note":"Exact WOE match as country","adm0_iso":"B55","adm0_diff":null,"adm0_tlc":"B55","adm0_a3_us":"GIB","adm0_a3_fr":"GIB","adm0_a3_ru":"GIB","adm0_a3_es":"GIB","adm0_a3_cn":"GIB","adm0_a3_tw":"GIB","adm0_a3_in":"GIB","adm0_a3_np":"GIB","adm0_a3_pk":"GIB","adm0_a3_de":"GIB","adm0_a3_gb":"GIB","adm0_a3_br":"GIB","adm0_a3_il":"GIB","adm0_a3_ps":"GIB","adm0_a3_sa":"GIB","adm0_a3_eg":"GIB","adm0_a3_ma":"GIB","adm0_a3_pt":"GIB","adm0_a3_ar":"GIB","adm0_a3_jp":"GIB","adm0_a3_ko":"GIB","adm0_a3_vn":"GIB","adm0_a3_tr":"GIB","adm0_a3_id":"GIB","adm0_a3_pl":"GIB","adm0_a3_gr":"GIB","adm0_a3_it":"GIB","adm0_a3_nl":"GIB","adm0_a3_se":"GIB","adm0_a3_bd":"GIB","adm0_a3_ua":"GIB","adm0_a3_un":-99,"adm0_a3_wb":-99,"continent":"Europe","region_un":"Europe","subregion":"Southern Europe","region_wb":"Europe & Central Asia","name_len":9,"long_len":9,"abbrev_len":4,"tiny":5,"homepart":-99,"min_zoom":0,"min_label":5,"max_label":9.5,"label_x":-5.3467,"label_y":36.129426,"ne_id":1159320719,"wikidataid":"Q1410","name_ar":"جبل طارق","name_bn":"জিব্রাল্টার","name_de":"Gibraltar","name_en":"Gibraltar","name_es":"Gibraltar","name_fa":"جبل طارق","name_fr":"Gibraltar","name_el":"Γιβραλτάρ","name_he":"גיברלטר","name_hi":"जिब्राल्टर","name_hu":"Gibraltár","name_id":"Gibraltar","name_it":"Gibilterra","name_ja":"ジブラルタル","name_ko":"지브롤터","name_nl":"Gibraltar","name_pl":"Gibraltar","name_pt":"Gibraltar","name_ru":"Гибралтар","name_sv":"Gibraltar","name_tr":"Cebelitarık","name_uk":"Гібралтар","name_ur":"جبل الطارق","name_vi":"Gibraltar","name_zh":"直布罗陀","name_zht":"直布羅陀","fclass_iso":"Admin-0 dependency","tlc_diff":null,"fclass_tlc":"Admin-0 dependency","fclass_us":null,"fclass_fr":null,"fclass_ru":null,"fclass_es":"Unrecognized","fclass_cn":null,"fclass_tw":null,"fclass_in":null,"fclass_np":null,"fclass_pk":null,"fclass_de":null,"fclass_gb":null,"fclass_br":null,"fclass_il":null,"fclass_ps":null,"fclass_sa":null,"fclass_eg":null,"fclass_ma":null,"fclass_pt":null,"fclass_ar":null,"fclass_jp":null,"fclass_ko":null,"fclass_vn":null,"fclass_tr":null,"fclass_id":null,"fclass_pl":null,"fclass_gr":null,"fclass_it":null,"fclass_nl":null,"fclass_se":null,"fclass_bd":null,"fclass_ua":null,"filename":"GIB.geojson"},"geometry":{"type":"Polygon","coordinates":[[[-5.358386758461411,36.141109447000375],[-5.338773483242616,36.14111967199992],[-5.339914516999954,36.12982819200005],[-5.339060024999924,36.12384674700007],[-5.34203040299991,36.11050039300005],[-5.35024980399993,36.11928945500006],[-5.358386758461411,36.141109447000375]]]}}